[{"OBJECT_NAME":"CALSPHERE 4A","OBJECT_ID":"1965-065H","EPOCH":"2026-03-09T20:35:03.926112","MEAN_MOTION":13.36259191,"ECCENTRICITY":0.00702161,"INCLINATION":89.9031,"RA_OF_ASC_NODE":123.4695,"ARG_OF_PERICENTER":25.7531,"MEAN_ANOMALY":24.8766,"EPHEMERIS_TYPE":0,"CLASSIFICATION_TYPE":"U","NORAD_CAT_ID":1520,"ELEMENT_SET_NO":999,"REV_AT_EPOCH":94944,"BSTAR":0.00016646069,"MEAN_MOTION_DOT":9.6e-7,"MEAN_MOTION_DDOT":0},{"OBJECT_NAME":"DELTA 1 DEB","OBJECT_ID":"1975-052M","EPOCH":"2026-03-09T17:12:40.907232","MEAN_MOTION":13.35568408,"ECCENTRICITY":0.00461541,"INCLINATION":100.0172,"RA_OF_ASC_NODE":329.9976,"ARG_OF_PERICENTER":346.9587,"MEAN_ANOMALY":74.2646,"EPHEMERIS_TYPE":0,"CLASSIFICATION_TYPE":"U","NORAD_CAT_ID":21276,"ELEMENT_SET_NO":999,"REV_AT_EPOCH":69845,"BSTAR":0.00014521,"MEAN_MOTION_DOT":3.0e-7,"MEAN_MOTION_DDOT":0}]
